STARLINK-30515          
1 57983U 23151V   23351.63083955  .00000334  00000+0  39762-4 0  9997
2 57983  43.0036  89.8453 0001167 255.5189 104.5524 15.02537172 13274
STARLINK-30516          
1 57984U 23151W   23352.75762010  .00033682  00000+0  24926-2 0  9994
2 57984  43.0030  83.6814 0001300 286.2580  73.8120 15.02594297 13447
STARLINK-30519          
1 57985U 23151X   23352.55485541  .00002389  00000+0  19177-3 0  9997
2 57985  43.0035  84.7379 0000970 266.9041  93.1690 15.02556705 13359
YAOGAN-39 03A           
1 57986U 23152A   23352.90151108  .00018510  00000+0  76701-3 0  9996
2 57986  34.9950 243.6311 0008095 246.3370 113.6495 15.23013237 11428
YAOGAN-39 03B           
1 57988U 23152C   23352.89944314  .00014218  00000+0  58603-3 0  9997
2 57988  34.9940 243.6094 0007507 230.0829 129.9226 15.23236945 11428
YAOGAN-39 03C           
1 57990U 23152E   23353.09444367  .00017896  00000+0  74640-3 0  9990
2 57990  34.9938 242.3580 0007473 265.6719  94.3142 15.22804171 11421
STARLINK-30537          
1 57991U 23153A   23352.84509130 -.00003005  00000+0 -14206-3 0  9995
2 57991  43.0016 165.1860 0001418 274.9851  85.0835 15.15946056 12592
STARLINK-30534          
1 57992U 23153B   23352.98823183  .00019475  00000+0  10053-2 0  9999
2 57992  43.0004 164.5386 0001394 275.0777  84.9911 15.15984316 12626
STARLINK-30536          
1 57993U 23153C   23352.80858568 -.00000904  00000+0 -35287-4 0  9993
2 57993  43.0000 165.7664 0001217 265.8904  94.1804 15.15137585 12697
STARLINK-30538          
1 57994U 23153D   23352.78373538  .00002212  00000+0  12501-3 0  9995
2 57994  43.0007 165.5824 0001318 275.9960  84.0737 15.15973642 12580
STARLINK-30517          
1 57995U 23153E   23352.97912809  .00013958  00000+0  72450-3 0  9995
2 57995  43.0011 164.4687 0001449 279.0692  80.9991 15.15981852 12728
STARLINK-30543          
1 57996U 23153F   23353.25001157 -.00436592  00000+0 -19899-2 0  9995
2 57996  42.9793 128.1793 0001736 254.9272 267.6792 15.83907289 13141
STARLINK-30523          
1 57997U 23153G   23352.87222344  .00006964  00000+0  37649-3 0  9994
2 57997  43.0002 165.3847 0001406 268.8431  91.2254 15.15149249 12697
STARLINK-30531          
1 57998U 23153H   23352.79492879  .00001640  00000+0  97945-4 0  9990
2 57998  43.0006 165.6625 0001353 266.9593  93.1100 15.15143888 12681
STARLINK-30552          
1 57999U 23153J   23352.79742532 -.00000258  00000+0 -14497-5 0  9993
2 57999  43.0004 165.6814 0001049 271.7575  88.3152 15.15140698 12685
STARLINK-30545          
1 58000U 23153K   23352.83823698  .00015987  00000+0  82753-3 0  9996
2 58000  43.0008 165.1302 0001438 269.4078  90.6604 15.15995196 12706
STARLINK-30535          
1 58001U 23153L   23352.77007907  .00006331  00000+0  33549-3 0  9999
2 58001  43.0006 165.4787 0001533 267.8170  92.2501 15.15975211 12683
STARLINK-30540          
1 58002U 23153M   23352.79953320  .00003820  00000+0  20719-3 0  9996
2 58002  42.9981 164.8409 0001272 266.2051  93.8650 15.15979533 12592
STARLINK-30546          
1 58003U 23153N   23352.83368660  .00000974  00000+0  61720-4 0  9994
2 58003  43.0010 165.0964 0001431 271.4563  88.6120 15.15968522 12691
STARLINK-30539          
1 58004U 23153P   23352.85030855  .00006072  00000+0  33023-3 0  9998
2 58004  43.0006 165.2186 0001336 267.5479  92.5215 15.15108070 12694
STARLINK-30530          
1 58005U 23153Q   23352.82458042  .00006198  00000+0  32870-3 0  9996
2 58005  43.0000 165.0276 0001440 254.1068 105.9621 15.15975016 12691
STARLINK-30526          
1 58006U 23153R   23353.25001157 -.00832739  00000+0 -30483-1 0  9992
2 58006  43.0007 143.3119 0001554 253.7172 337.0032 15.29936739 12970
STARLINK-30527          
1 58007U 23153S   23352.91668981  .00300289  00000+0  15772-2 0  9992
2 58007  42.9942 138.4927 0006595 331.8758  56.9510 15.79084611  6099
STARLINK-30522          
1 58008U 23153T   23352.80045691 -.00000366  00000+0 -76696-5 0  9998
2 58008  42.9990 165.6967 0001184 256.8087 103.2627 15.13494113 12686
STARLINK-30486          
1 58009U 23153U   23352.81774559  .00002425  00000+0  13590-3 0  9990
2 58009  43.0002 164.9765 0001207 270.0279  90.0429 15.15973780 12595
STARLINK-30520          
1 58010U 23153V   23352.80864210  .00000674  00000+0  46374-4 0  9996
2 58010  43.0001 164.9080 0001270 262.7772  97.2931 15.15971102 12595
STARLINK-30497          
1 58011U 23153W   23352.80635871  .00001932  00000+0  11069-3 0  9996
2 58011  42.9997 164.8909 0001226 266.5586  93.5121 15.15974990 12692
STARLINK-30525          
1 58012U 23153X   23352.79725033  .00002108  00000+0  11968-3 0  9999
2 58012  42.9993 164.8238 0001197 277.2043  82.8669 15.15975587 12699
KUIPER-P2               
1 58013U 23154A   23352.37001583  .00019307  00000+0  70789-3 0  9997
2 58013  29.9893 333.8126 0014463 350.1213   9.9125 15.26588950 11094
KUIPER-P1               
1 58014U 23154B   23353.08993174  .00030628  00000+0  11234-2 0  9991
2 58014  29.9893 329.0022 0013773 355.9949   4.0563 15.26634996 11206
THEOS-2 (T2V)           
1 58016U 23155A   23353.16753196  .00001431  00000+0  18851-3 0  9994
2 58016  97.9016  61.2551 0001423  98.3243 261.8131 14.81643154 10520
FORMOSAT-7R (TRITON)    
1 58017U 23155B   23353.18815475  .00002356  00000+0  25793-3 0  9996
2 58017  97.9212  62.1761 0003651 118.3520 241.8065 14.88763731 10578
ANSER-FLW2              
1 58018U 23155C   23353.15479391  .00004281  00000+0  35368-3 0  9995
2 58018  97.6657  60.8183 0009138  93.6469 266.5799 14.99452515 10648
ANSER-FLW1              
1 58019U 23155D   23353.15232931  .00005328  00000+0  43792-3 0  9996
2 58019  97.6652  60.8201 0009300  94.0624 266.1663 14.99538854 10641
NESS                    
1 58020U 23155E   23352.93520067  .00008663  00000+0  69886-3 0  9990
2 58020  97.6607  60.6447 0009975 103.6076 256.6259 15.00072860 10614
CSC-2                   
1 58021U 23155F   23353.14016127  .00007699  00000+0  62669-3 0  9992
2 58021  97.6626  60.8443 0007245 106.1370 254.0651 14.99787265 10647
CSC-1                   
1 58022U 23155G   23353.13531257  .00003658  00000+0  29922-3 0  9994
2 58022  97.6610  60.8419 0007210 110.7342 249.4655 14.99934815 10643
PRETTY                  
1 58023U 23155H   23353.16400069  .00008138  00000+0  64346-3 0  9991
2 58023  97.6660  61.0008 0001751 164.1064 196.0215 15.00900284 10650
MACSAT (FINCH 1)        
1 58024U 23155J   23353.16284210  .00007394  00000+0  58575-3 0  9990
2 58024  97.6690  61.0109 0001040 188.4174 171.7033 15.00862878 10652
PVCC                    
1 58025U 23155K   23353.16199218  .00006045  00000+0  48083-3 0  9999
2 58025  97.6715  61.0185 0001197  32.2304 327.8993 15.00778659 10651
STARLINK-30514          
1 58028U 23156A   23352.88809575  .00012676  00000+0  61752-3 0  9990
2 58028  53.0529 248.3644 0001811 135.0507 225.0634 15.18706879 12054
STARLINK-30518          
1 58029U 23156B   23353.01464603 -.00000107  00000+0  10039-4 0  9996
2 58029  53.0547 247.7317 0001593 121.3843 238.7307 15.18709518 12076
STARLINK-30549          
1 58030U 23156C   23352.94761948 -.00000460  00000+0 -67598-5 0  9997
2 58030  53.0544 245.8903 0001614 116.7076 243.4084 15.18708818 11767
STARLINK-30556          
1 58031U 23156D   23353.01426017 -.00002584  00000+0 -10797-3 0  9998
2 58031  53.0566 247.7356 0001232  96.4068 263.7066 15.18689072 12076
STARLINK-30561          
1 58032U 23156E   23352.97400481  .00019707  00000+0  95063-3 0  9992
2 58032  53.0508 246.7568 0001641 104.1269 255.9907 15.18708861 12076
STARLINK-30562          
1 58033U 23156F   23353.02871315  .00004016  00000+0  20605-3 0  9995
2 58033  53.0504 246.3842 0001207  93.9280 266.1852 15.18734921 12091
STARLINK-30565          
1 58034U 23156G   23352.98374617  .00002281  00000+0  12365-3 0  9999
2 58034  53.0512 246.8175 0001328  82.2216 277.8929 15.18716601 12087
STARLINK-30438          
1 58035U 23156H   23353.25001157  .00046511  00000+0  22163-2 0  9997
2 58035  53.0522 246.4367 0001039 111.7993 206.7888 15.18687236 11778
STARLINK-30437          
1 58036U 23156J   23352.98929105  .00006379  00000+0  31841-3 0  9991
2 58036  53.0520 247.5713 0001304  81.3142 278.8000 15.18721896 11965
STARLINK-30533          
1 58037U 23156K   23352.89204634 -.00005349  00000+0 -23972-3 0  9999
2 58037  53.0517 246.9579 0001405 118.6219 241.4917 15.18697161 12068
STARLINK-30560          
1 58038U 23156L   23353.00449759  .00002000  00000+0  11030-3 0  9994
2 58038  53.0549 247.6718 0001849 130.7813 229.3342 15.18722564 11819
STARLINK-30559          
1 58039U 23156M   23353.03473997  .00015414  00000+0  74716-3 0  9992
2 58039  53.0509 246.4285 0001512  86.1361 273.9807 15.18714884 12088
STARLINK-30555          
1 58040U 23156N   23353.03378900  .00003850  00000+0  19827-3 0  9995
2 58040  53.0513 246.4202 0001195  92.6944 267.4187 15.18718894 12095
STARLINK-30542          
1 58041U 23156P   23352.98422016  .00001146  00000+0  69697-4 0  9994
2 58041  53.0513 247.5417 0001423 116.0284 244.0857 15.18696034 12072
STARLINK-30563          
1 58042U 23156Q   23352.97916188  .00006513  00000+0  32490-3 0  9995
2 58042  53.0509 247.5218 0001715 125.1228 234.9928 15.18705408 12073
STARLINK-30564          
1 58043U 23156R   23353.17554836 -.00289889  00000+0 -14622-1 0  9993
2 58043  53.0515 245.8808 0000712 138.3623 221.7425 15.18039993 12118
STARLINK-30547          
1 58044U 23156S   23353.01858716 -.00001569  00000+0 -59513-4 0  9999
2 58044  53.0534 246.3236 0002138  55.3993 304.7203 15.18712383 12086
STARLINK-30550          
1 58045U 23156T   23352.93261102  .00189411  00000+0  63222-3 0  9999
2 58045  53.0411 226.1730 0003065  28.2499 331.8692 15.89177545 12352
STARLINK-30548          
1 58046U 23156U   23353.02459930  .00017822  00000+0  86137-3 0  9995
2 58046  53.0509 246.3610 0001367 123.9136 236.1989 15.18710341 12036
